STARLINK-31162          
1 58791U 24012E   26068.33510763 -.00000616  00000+0 -12838-4 0  9999
2 58791  43.0024 167.0956 0001906 282.4896  77.5743 15.27589946121186
FLOCK 4G-8              
1 62613U 25009E   26068.72381419  .00013559  00000+0  50438-3 0  9996
2 62613  97.4045 151.2834 0003050 315.2538  44.8455 15.27623414 63721
